{
  "type": "FeatureCollection",
  "features": [
    {
      "type": "Feature",
      "properties": {
        "norad_id": 42989,
        "name": "SKYSAT-C9",
        "group": "resource",
        "lat": -20.71266421778827,
        "lon": -54.15432679409814,
        "alt_km": 468.4493098619414,
        "timestamp": "2025-12-24T07:45:05.856435+00:00",
        "meta_object_name": "SKYSAT-C9",
        "meta_object_id": "2017-068C",
        "meta_epoch": "2025-12-23T21:30:06.973056",
        "meta_mean_motion": 15.36320631,
        "meta_eccentricity": 0.00103114,
        "meta_inclination": 97.4198,
        "meta_ra_of_asc_node": 128.2396,
        "meta_arg_of_pericenter": 51.962,
        "meta_mean_anomaly": 308.2553,
        "meta_ephemeris_type": 0,
        "meta_classification_type": "U",
        "meta_norad_cat_id": 42989,
        "meta_element_set_no": 999,
        "meta_rev_at_epoch": 45579,
        "meta_bstar": 0.00035834833,
        "meta_mean_motion_dot": 0.00012636,
        "meta_mean_motion_ddot": 0,
        "tle_line1": "1 42989U 17068C   25357.89591404  .00012636  00000+0  35835-3 0  9990",
        "tle_line2": "2 42989  97.4198 128.2396 0010311  51.9620 308.2553 15.36320631455798"
      },
      "geometry": {
        "type": "Point",
        "coordinates": [
          -54.15432679409814,
          -20.71266421778827
        ]
      }
    },
    {
      "type": "Feature",
      "properties": {
        "norad_id": 42990,
        "name": "SKYSAT-C8",
        "group": "resource",
        "lat": 39.979338102568654,
        "lon": 122.09446814258793,
        "alt_km": 463.70816393333735,
        "timestamp": "2025-12-24T07:45:05.856445+00:00",
        "meta_object_name": "SKYSAT-C8",
        "meta_object_id": "2017-068D",
        "meta_epoch": "2025-12-23T20:36:40.355424",
        "meta_mean_motion": 15.33155783,
        "meta_eccentricity": 9.707e-05,
        "meta_inclination": 97.4289,
        "meta_ra_of_asc_node": 127.9093,
        "meta_arg_of_pericenter": 279.2421,
        "meta_mean_anomaly": 80.8711,
        "meta_ephemeris_type": 0,
        "meta_classification_type": "U",
        "meta_norad_cat_id": 42990,
        "meta_element_set_no": 999,
        "meta_rev_at_epoch": 45541,
        "meta_bstar": 0.00036031492,
        "meta_mean_motion_dot": 0.00011468,
        "meta_mean_motion_ddot": 0,
        "tle_line1": "1 42990U 17068D   25357.85880041  .00011468  00000+0  36031-3 0  9997",
        "tle_line2": "2 42990  97.4289 127.9093 0000970 279.2421  80.8711 15.33155783455414"
      },
      "geometry": {
        "type": "Point",
        "coordinates": [
          122.09446814258793,
          39.979338102568654
        ]
      }
    },
    {
      "type": "Feature",
      "properties": {
        "norad_id": 42991,
        "name": "SKYSAT-C7",
        "group": "resource",
        "lat": -50.396782051403854,
        "lon": -59.66741640016098,
        "alt_km": 479.2291409305417,
        "timestamp": "2025-12-24T07:45:05.856455+00:00",
        "meta_object_name": "SKYSAT-C7",
        "meta_object_id": "2017-068E",
        "meta_epoch": "2025-12-23T07:14:29.889312",
        "meta_mean_motion": 15.3253985,
        "meta_eccentricity": 0.00069531,
        "meta_inclination": 97.4294,
        "meta_ra_of_asc_node": 128.382,
        "meta_arg_of_pericenter": 23.9073,
        "meta_mean_anomaly": 336.249,
        "meta_ephemeris_type": 0,
        "meta_classification_type": "U",
        "meta_norad_cat_id": 42991,
        "meta_element_set_no": 999,
        "meta_rev_at_epoch": 45539,
        "meta_bstar": 0.00037351133,
        "meta_mean_motion_dot": 0.00011671,
        "meta_mean_motion_ddot": 0,
        "tle_line1": "1 42991U 17068E   25357.30173483  .00011671  00000+0  37351-3 0  9995",
        "tle_line2": "2 42991  97.4294 128.3820 0006953  23.9073 336.2490 15.32539850455397"
      },
      "geometry": {
        "type": "Point",
        "coordinates": [
          -59.66741640016098,
          -50.396782051403854
        ]
      }
    },
    {
      "type": "Feature",
      "properties": {
        "norad_id": 42992,
        "name": "SKYSAT-C6",
        "group": "resource",
        "lat": -46.76323116583546,
        "lon": 137.81751223530992,
        "alt_km": 477.99607874165486,
        "timestamp": "2025-12-24T07:45:05.856465+00:00",
        "meta_object_name": "SKYSAT-C6",
        "meta_object_id": "2017-068F",
        "meta_epoch": "2025-12-23T22:33:01.268064",
        "meta_mean_motion": 15.31710271,
        "meta_eccentricity": 0.00048283,
        "meta_inclination": 97.4329,
        "meta_ra_of_asc_node": 129.4519,
        "meta_arg_of_pericenter": 52.1557,
        "meta_mean_anomaly": 308.0121,
        "meta_ephemeris_type": 0,
        "meta_classification_type": "U",
        "meta_norad_cat_id": 42992,
        "meta_element_set_no": 999,
        "meta_rev_at_epoch": 45547,
        "meta_bstar": 0.00035191671,
        "meta_mean_motion_dot": 0.00010704,
        "meta_mean_motion_ddot": 0,
        "tle_line1": "1 42992U 17068F   25357.93959801  .00010704  00000+0  35192-3 0  9998",
        "tle_line2": "2 42992  97.4329 129.4519 0004828  52.1557 308.0121 15.31710271455478"
      },
      "geometry": {
        "type": "Point",
        "coordinates": [
          137.81751223530992,
          -46.76323116583546
        ]
      }
    },
    {
      "type": "Feature",
      "properties": {
        "norad_id": 43111,
        "name": "CARTOSAT-2F",
        "group": "resource",
        "lat": -81.07314702440266,
        "lon": 179.58633494031764,
        "alt_km": 516.5603900811439,
        "timestamp": "2025-12-24T07:45:05.856475+00:00",
        "meta_object_name": "CARTOSAT-2F",
        "meta_object_id": "2018-004A",
        "meta_epoch": "2025-12-23T22:41:05.030304",
        "meta_mean_motion": 15.19227649,
        "meta_eccentricity": 0.00016281,
        "meta_inclination": 97.4303,
        "meta_ra_of_asc_node": 55.4005,
        "meta_arg_of_pericenter": 109.6359,
        "meta_mean_anomaly": 250.5052,
        "meta_ephemeris_type": 0,
        "meta_classification_type": "U",
        "meta_norad_cat_id": 43111,
        "meta_element_set_no": 999,
        "meta_rev_at_epoch": 44072,
        "meta_bstar": 0.00021791088,
        "meta_mean_motion_dot": 4.522e-05,
        "meta_mean_motion_ddot": 0,
        "tle_line1": "1 43111U 18004A   25357.94519711  .00004522  00000+0  21791-3 0  9997",
        "tle_line2": "2 43111  97.4303  55.4005 0001628 109.6359 250.5052 15.19227649440729"
      },
      "geometry": {
        "type": "Point",
        "coordinates": [
          179.58633494031764,
          -81.07314702440266
        ]
      }
    },
    {
      "type": "Feature",
      "properties": {
        "norad_id": 43259,
        "name": "GAOFEN-1 02",
        "group": "resource",
        "lat": 48.077458811115996,
        "lon": 47.014184287522674,
        "alt_km": 637.3278615420477,
        "timestamp": "2025-12-24T07:45:05.856485+00:00",
        "meta_object_name": "GAOFEN-1 02",
        "meta_object_id": "2018-031A",
        "meta_epoch": "2025-12-23T23:23:56.467104",
        "meta_mean_motion": 14.76435356,
        "meta_eccentricity": 0.00025277,
        "meta_inclination": 98.079,
        "meta_ra_of_asc_node": 55.7676,
        "meta_arg_of_pericenter": 175.003,
        "meta_mean_anomaly": 185.1206,
        "meta_ephemeris_type": 0,
        "meta_classification_type": "U",
        "meta_norad_cat_id": 43259,
        "meta_element_set_no": 999,
        "meta_rev_at_epoch": 41684,
        "meta_bstar": 7.4871096e-05,
        "meta_mean_motion_dot": 4.69e-06,
        "meta_mean_motion_ddot": 0,
        "tle_line1": "1 43259U 18031A   25357.97495911  .00000469  00000+0  74871-4 0  9992",
        "tle_line2": "2 43259  98.0790  55.7676 0002527 175.0030 185.1206 14.76435356416846"
      },
      "geometry": {
        "type": "Point",
        "coordinates": [
          47.014184287522674,
          48.077458811115996
        ]
      }
    },
    {
      "type": "Feature",
      "properties": {
        "norad_id": 43260,
        "name": "GAOFEN-1 03",
        "group": "resource",
        "lat": 14.852649570724342,
        "lon": -121.84980980647087,
        "alt_km": 641.5291185302758,
        "timestamp": "2025-12-24T07:45:05.856495+00:00",
        "meta_object_name": "GAOFEN-1 03",
        "meta_object_id": "2018-031B",
        "meta_epoch": "2025-12-23T22:52:28.532064",
        "meta_mean_motion": 14.76458869,
        "meta_eccentricity": 0.00017105,
        "meta_inclination": 98.0783,
        "meta_ra_of_asc_node": 55.6217,
        "meta_arg_of_pericenter": 261.7883,
        "meta_mean_anomaly": 98.3132,
        "meta_ephemeris_type": 0,
        "meta_classification_type": "U",
        "meta_norad_cat_id": 43260,
        "meta_element_set_no": 999,
        "meta_rev_at_epoch": 41683,
        "meta_bstar": 0.00013674089,
        "meta_mean_motion_dot": 9e-06,
        "meta_mean_motion_ddot": 0,
        "tle_line1": "1 43260U 18031B   25357.95310801  .00000900  00000+0  13674-3 0  9999",
        "tle_line2": "2 43260  98.0783  55.6217 0001710 261.7883  98.3132 14.76458869416838"
      },
      "geometry": {
        "type": "Point",
        "coordinates": [
          -121.84980980647087,
          14.852649570724342
        ]
      }
    }
  ]
}